[
  {
    "OBJECT_NAME": "STARLINK-1262",
    "OBJECT_ID": "20019G",
    "EPOCH": "2025-11-11T06:18:27.672192",
    "MEAN_MOTION": 15.063979,
    "ECCENTRICITY": 0.0001607,
    "INCLINATION": 53.0549,
    "RA_OF_ASC_NODE": 338.2539,
    "ARG_OF_PERICENTER": 83.5082,
    "MEAN_ANOMALY": 276.609,
    "EPHEMERIS_TYPE": 0,
    "CLASSIFICATION_TYPE": "U",
    "NORAD_CAT_ID": 45366,
    "ELEMENT_SET_NO": 999,
    "REV_AT_EPOCH": 31188,
    "BSTAR": 0.0,
    "MEAN_MOTION_DOT": -2.553e-05,
    "MEAN_MOTION_DDOT": 0.0,
    "TLE_LINE1": "1 45366U 20019G   25315.26282028 -.00002553  00000+0 -15256-3 0  9990",
    "TLE_LINE2": "2 45366  53.0549 338.2539 0001607  83.5082 276.6090 15.06397900311886",
    "COMMENT": "Grouped by shell and plane from TLE"
  },
  {
    "OBJECT_NAME": "STARLINK-1273",
    "OBJECT_ID": "20019H",
    "EPOCH": "2025-11-11T06:50:17.706624",
    "MEAN_MOTION": 15.06403157,
    "ECCENTRICITY": 9.82e-05,
    "INCLINATION": 53.0546,
    "RA_OF_ASC_NODE": 338.156,
    "ARG_OF_PERICENTER": 69.076,
    "MEAN_ANOMALY": 291.0334,
    "EPHEMERIS_TYPE": 0,
    "CLASSIFICATION_TYPE": "U",
    "NORAD_CAT_ID": 45367,
    "ELEMENT_SET_NO": 999,
    "REV_AT_EPOCH": 31188,
    "BSTAR": 0.0,
    "MEAN_MOTION_DOT": -1.41e-05,
    "MEAN_MOTION_DDOT": 0.0,
    "TLE_LINE1": "1 45367U 20019H   25315.28492716 -.00001410  00000+0 -75781-4 0  9991",
    "TLE_LINE2": "2 45367  53.0546 338.1560 0000982  69.0760 291.0334 15.06403157311888",
    "COMMENT": "Grouped by shell and plane from TLE"
  },
  {
    "OBJECT_NAME": "STARLINK-1276",
    "OBJECT_ID": "20019J",
    "EPOCH": "2025-11-11T06:07:50.912832",
    "MEAN_MOTION": 15.06396307,
    "ECCENTRICITY": 0.0001305,
    "INCLINATION": 53.0552,
    "RA_OF_ASC_NODE": 338.292,
    "ARG_OF_PERICENTER": 90.1287,
    "MEAN_ANOMALY": 269.9852,
    "EPHEMERIS_TYPE": 0,
    "CLASSIFICATION_TYPE": "U",
    "NORAD_CAT_ID": 45368,
    "ELEMENT_SET_NO": 999,
    "REV_AT_EPOCH": 31188,
    "BSTAR": 0.00017379,
    "MEAN_MOTION_DOT": 2.308e-05,
    "MEAN_MOTION_DDOT": 0.0,
    "TLE_LINE1": "1 45368U 20019J   25315.25545038  .00002308  00000+0  17379-3 0  9998",
    "TLE_LINE2": "2 45368  53.0552 338.2920 0001305  90.1287 269.9852 15.06396307311883",
    "COMMENT": "Grouped by shell and plane from TLE"
  },
  {
    "OBJECT_NAME": "STARLINK-1277",
    "OBJECT_ID": "20019K",
    "EPOCH": "2025-11-11T05:57:20.376864",
    "MEAN_MOTION": 15.06394805,
    "ECCENTRICITY": 0.0002371,
    "INCLINATION": 53.0569,
    "RA_OF_ASC_NODE": 338.9508,
    "ARG_OF_PERICENTER": 95.1329,
    "MEAN_ANOMALY": 264.9931,
    "EPHEMERIS_TYPE": 0,
    "CLASSIFICATION_TYPE": "U",
    "NORAD_CAT_ID": 45369,
    "ELEMENT_SET_NO": 999,
    "REV_AT_EPOCH": 31187,
    "BSTAR": 2.1301e-05,
    "MEAN_MOTION_DOT": 3.5e-07,
    "MEAN_MOTION_DDOT": 0.0,
    "TLE_LINE1": "1 45369U 20019K   25315.24815251  .00000035  00000+0  21301-4 0  9991",
    "TLE_LINE2": "2 45369  53.0569 338.9508 0002371  95.1329 264.9931 15.06394805311870",
    "COMMENT": "Grouped by shell and plane from TLE"
  },
  {
    "OBJECT_NAME": "STARLINK-1281",
    "OBJECT_ID": "20019L",
    "EPOCH": "2025-11-11T07:27:27.176544",
    "MEAN_MOTION": 15.06401371,
    "ECCENTRICITY": 0.000153,
    "INCLINATION": 53.056,
    "RA_OF_ASC_NODE": 338.0456,
    "ARG_OF_PERICENTER": 91.0891,
    "MEAN_ANOMALY": 269.0273,
    "EPHEMERIS_TYPE": 0,
    "CLASSIFICATION_TYPE": "U",
    "NORAD_CAT_ID": 45370,
    "ELEMENT_SET_NO": 999,
    "REV_AT_EPOCH": 31189,
    "BSTAR": 0.0,
    "MEAN_MOTION_DOT": -3.753e-05,
    "MEAN_MOTION_DDOT": 0.0,
    "TLE_LINE1": "1 45370U 20019L   25315.31073121 -.00003753  00000+0 -23315-3 0  9991",
    "TLE_LINE2": "2 45370  53.0560 338.0456 0001530  91.0891 269.0273 15.06401371311895",
    "COMMENT": "Grouped by shell and plane from TLE"
  },
  {
    "OBJECT_NAME": "STARLINK-1300",
    "OBJECT_ID": "20019Q",
    "EPOCH": "2025-11-11T06:23:46.407840",
    "MEAN_MOTION": 15.06395821,
    "ECCENTRICITY": 0.0001574,
    "INCLINATION": 53.055,
    "RA_OF_ASC_NODE": 338.2398,
    "ARG_OF_PERICENTER": 81.0097,
    "MEAN_ANOMALY": 279.107,
    "EPHEMERIS_TYPE": 0,
    "CLASSIFICATION_TYPE": "U",
    "NORAD_CAT_ID": 45374,
    "ELEMENT_SET_NO": 999,
    "REV_AT_EPOCH": 31188,
    "BSTAR": 0.00012571,
    "MEAN_MOTION_DOT": 1.591e-05,
    "MEAN_MOTION_DDOT": 0.0,
    "TLE_LINE1": "1 45374U 20019Q   25315.26650935  .00001591  00000+0  12571-3 0  9991",
    "TLE_LINE2": "2 45374  53.0550 338.2398 0001574  81.0097 279.1070 15.06395821311888",
    "COMMENT": "Grouped by shell and plane from TLE"
  },
  {
    "OBJECT_NAME": "STARLINK-1302",
    "OBJECT_ID": "20019R",
    "EPOCH": "2025-11-11T06:44:59.139456",
    "MEAN_MOTION": 15.06406572,
    "ECCENTRICITY": 0.0001285,
    "INCLINATION": 53.0549,
    "RA_OF_ASC_NODE": 338.175,
    "ARG_OF_PERICENTER": 91.6249,
    "MEAN_ANOMALY": 268.4887,
    "EPHEMERIS_TYPE": 0,
    "CLASSIFICATION_TYPE": "U",
    "NORAD_CAT_ID": 45375,
    "ELEMENT_SET_NO": 999,
    "REV_AT_EPOCH": 31188,
    "BSTAR": 0.0,
    "MEAN_MOTION_DOT": -1.805e-05,
    "MEAN_MOTION_DDOT": 0.0,
    "TLE_LINE1": "1 45375U 20019R   25315.28124004 -.00001805  00000+0 -10231-3 0  9998",
    "TLE_LINE2": "2 45375  53.0549 338.1750 0001285  91.6249 268.4887 15.06406572311886",
    "COMMENT": "Grouped by shell and plane from TLE"
  },
  {
    "OBJECT_NAME": "STARLINK-1304",
    "OBJECT_ID": "20019S",
    "EPOCH": "2025-11-11T07:11:32.635392",
    "MEAN_MOTION": 15.06389183,
    "ECCENTRICITY": 0.0001867,
    "INCLINATION": 53.0575,
    "RA_OF_ASC_NODE": 338.0914,
    "ARG_OF_PERICENTER": 99.5717,
    "MEAN_ANOMALY": 260.5483,
    "EPHEMERIS_TYPE": 0,
    "CLASSIFICATION_TYPE": "U",
    "NORAD_CAT_ID": 45376,
    "ELEMENT_SET_NO": 999,
    "REV_AT_EPOCH": 31188,
    "BSTAR": 2.6873000000000005e-05,
    "MEAN_MOTION_DOT": 1.19e-06,
    "MEAN_MOTION_DDOT": 0.0,
    "TLE_LINE1": "1 45376U 20019S   25315.29968328  .00000119  00000+0  26873-4 0  9990",
    "TLE_LINE2": "2 45376  53.0575 338.0914 0001867  99.5717 260.5483 15.06389183311883",
    "COMMENT": "Grouped by shell and plane from TLE"
  },
  {
    "OBJECT_NAME": "STARLINK-1308",
    "OBJECT_ID": "20019BM",
    "EPOCH": "2025-11-11T07:00:54.535968",
    "MEAN_MOTION": 15.06409364,
    "ECCENTRICITY": 0.0001567,
    "INCLINATION": 53.0552,
    "RA_OF_ASC_NODE": 338.1228,
    "ARG_OF_PERICENTER": 111.0965,
    "MEAN_ANOMALY": 249.0192,
    "EPHEMERIS_TYPE": 0,
    "CLASSIFICATION_TYPE": "U",
    "NORAD_CAT_ID": 45419,
    "ELEMENT_SET_NO": 999,
    "REV_AT_EPOCH": 31162,
    "BSTAR": 0.00014013,
    "MEAN_MOTION_DOT": 1.807e-05,
    "MEAN_MOTION_DDOT": 0.0,
    "TLE_LINE1": "1 45419U 20019BM  25315.29229787  .00001807  00000+0  14013-3 0  9994",
    "TLE_LINE2": "2 45419  53.0552 338.1228 0001567 111.0965 249.0192 15.06409364311622",
    "COMMENT": "Grouped by shell and plane from TLE"
  },
  {
    "OBJECT_NAME": "STARLINK-2404",
    "OBJECT_ID": "21027B",
    "EPOCH": "2025-11-11T07:41:25.620288",
    "MEAN_MOTION": 15.06394971,
    "ECCENTRICITY": 0.0001408,
    "INCLINATION": 53.0556,
    "RA_OF_ASC_NODE": 333.1981,
    "ARG_OF_PERICENTER": 96.2788,
    "MEAN_ANOMALY": 263.8361,
    "EPHEMERIS_TYPE": 0,
    "CLASSIFICATION_TYPE": "U",
    "NORAD_CAT_ID": 48093,
    "ELEMENT_SET_NO": 999,
    "REV_AT_EPOCH": 25471,
    "BSTAR": 4.3057000000000005e-05,
    "MEAN_MOTION_DOT": 3.6e-06,
    "MEAN_MOTION_DDOT": 0.0,
    "TLE_LINE1": "1 48093U 21027B   25315.32043542  .00000360  00000+0  43057-4 0  9996",
    "TLE_LINE2": "2 48093  53.0556 333.1981 0001408  96.2788 263.8361 15.06394971254714",
    "COMMENT": "Grouped by shell and plane from TLE"
  },
  {
    "OBJECT_NAME": "STARLINK-2421",
    "OBJECT_ID": "21027G",
    "EPOCH": "2025-11-11T06:37:41.371392",
    "MEAN_MOTION": 15.06395619,
    "ECCENTRICITY": 0.000184,
    "INCLINATION": 53.055,
    "RA_OF_ASC_NODE": 333.191,
    "ARG_OF_PERICENTER": 124.3557,
    "MEAN_ANOMALY": 235.7606,
    "EPHEMERIS_TYPE": 0,
    "CLASSIFICATION_TYPE": "U",
    "NORAD_CAT_ID": 48098,
    "ELEMENT_SET_NO": 999,
    "REV_AT_EPOCH": 25470,
    "BSTAR": 0.00031955,
    "MEAN_MOTION_DOT": 4.481e-05,
    "MEAN_MOTION_DDOT": 0.0,
    "TLE_LINE1": "1 48098U 21027G   25315.27617328  .00004481  00000+0  31955-3 0  9995",
    "TLE_LINE2": "2 48098  53.0550 333.1910 0001840 124.3557 235.7606 15.06395619254701",
    "COMMENT": "Grouped by shell and plane from TLE"
  },
  {
    "OBJECT_NAME": "STARLINK-2436",
    "OBJECT_ID": "21027K",
    "EPOCH": "2025-11-11T07:04:16.537440",
    "MEAN_MOTION": 15.06394722,
    "ECCENTRICITY": 0.0001415,
    "INCLINATION": 53.0546,
    "RA_OF_ASC_NODE": 333.3198,
    "ARG_OF_PERICENTER": 91.2142,
    "MEAN_ANOMALY": 268.9009,
    "EPHEMERIS_TYPE": 0,
    "CLASSIFICATION_TYPE": "U",
    "NORAD_CAT_ID": 48101,
    "ELEMENT_SET_NO": 999,
    "REV_AT_EPOCH": 25471,
    "BSTAR": 5.715400000000001e-05,
    "MEAN_MOTION_DOT": 5.7e-06,
    "MEAN_MOTION_DDOT": 0.0,
    "TLE_LINE1": "1 48101U 21027K   25315.29463585  .00000570  00000+0  57154-4 0  9991",
    "TLE_LINE2": "2 48101  53.0546 333.3198 0001415  91.2142 268.9009 15.06394722254711",
    "COMMENT": "Grouped by shell and plane from TLE"
  },
  {
    "OBJECT_NAME": "STARLINK-2448",
    "OBJECT_ID": "21027V",
    "EPOCH": "2025-11-11T06:21:45.943776",
    "MEAN_MOTION": 15.063979,
    "ECCENTRICITY": 0.0001754,
    "INCLINATION": 53.0557,
    "RA_OF_ASC_NODE": 333.2152,
    "ARG_OF_PERICENTER": 106.6345,
    "MEAN_ANOMALY": 253.4837,
    "EPHEMERIS_TYPE": 0,
    "CLASSIFICATION_TYPE": "U",
    "NORAD_CAT_ID": 48111,
    "ELEMENT_SET_NO": 999,
    "REV_AT_EPOCH": 25471,
    "BSTAR": 0.00016496,
    "MEAN_MOTION_DOT": 2.176e-05,
    "MEAN_MOTION_DDOT": 0.0,
    "TLE_LINE1": "1 48111U 21027V   25315.26511509  .00002176  00000+0  16496-3 0  9996",
    "TLE_LINE2": "2 48111  53.0557 333.2152 0001754 106.6345 253.4837 15.06397900254714",
    "COMMENT": "Grouped by shell and plane from TLE"
  }
]